line1,line2,validFromUtcTime
1 00000U 00000E   26001.00000000  .00000000  00000-0  27772-4 0    01,2 00000  88.8960 135.3351 0010118 270.3125  37.0861 13.55283711    04,2026-01-01T00:00:00Z
1 00000U 00000E   26002.00000000  .00000000  00000-0  27772-4 0    02,2 00000  88.8960 135.2228 0010118 267.4025 236.1060 13.55283749    06,2026-01-02T00:00:00Z
